{
  "type": "FeatureCollection",
  "features": [
    {
      "type": "Feature",
      "properties": {
        "norad_id": 33886,
        "name": "IRIDIUM 33 DEB",
        "group": "iridium-33-debris",
        "lat": -80.99676078409934,
        "lon": 44.591213839548395,
        "alt_km": 771.3518352030269,
        "timestamp": "2025-12-10T14:53:37.473170+00:00",
        "meta_object_name": "IRIDIUM 33 DEB",
        "meta_object_id": "1997-051BF",
        "meta_epoch": "2025-12-10T07:12:12.704256",
        "meta_mean_motion": 14.36047612,
        "meta_eccentricity": 0.00121709,
        "meta_inclination": 86.383,
        "meta_ra_of_asc_node": 68.2555,
        "meta_arg_of_pericenter": 251.2153,
        "meta_mean_anomaly": 171.5085,
        "meta_ephemeris_type": 0,
        "meta_classification_type": "U",
        "meta_norad_cat_id": 33886,
        "meta_element_set_no": 999,
        "meta_rev_at_epoch": 88017,
        "meta_bstar": 0.00033054969,
        "meta_mean_motion_dot": 9.81e-06,
        "meta_mean_motion_ddot": 0,
        "tle_line1": "1 33886U 97051BF  25344.30014704  .00000981  00000+0  33055-3 0  9993",
        "tle_line2": "2 33886  86.3830  68.2555 0012170 251.2153 171.5085 14.36047612880174"
      },
      "geometry": {
        "type": "Point",
        "coordinates": [
          44.591213839548395,
          -80.99676078409934
        ]
      }
    },
    {
      "type": "Feature",
      "properties": {
        "norad_id": 33887,
        "name": "IRIDIUM 33 DEB",
        "group": "iridium-33-debris",
        "lat": -25.57534678862818,
        "lon": -173.92182889177394,
        "alt_km": 770.8123061420947,
        "timestamp": "2025-12-10T14:53:37.473180+00:00",
        "meta_object_name": "IRIDIUM 33 DEB",
        "meta_object_id": "1997-051BG",
        "meta_epoch": "2025-12-10T07:19:28.632000",
        "meta_mean_motion": 14.37217686,
        "meta_eccentricity": 0.00042509,
        "meta_inclination": 86.3045,
        "meta_ra_of_asc_node": 4.4415,
        "meta_arg_of_pericenter": 237.58,
        "meta_mean_anomaly": 137.2262,
        "meta_ephemeris_type": 0,
        "meta_classification_type": "U",
        "meta_norad_cat_id": 33887,
        "meta_element_set_no": 999,
        "meta_rev_at_epoch": 88130,
        "meta_bstar": 0.00022389718,
        "meta_mean_motion_dot": 6.86e-06,
        "meta_mean_motion_ddot": 0,
        "tle_line1": "1 33887U 97051BG  25344.30519250  .00000686  00000+0  22390-3 0  9992",
        "tle_line2": "2 33887  86.3045   4.4415 0004250 237.5800 137.2262 14.37217686881309"
      },
      "geometry": {
        "type": "Point",
        "coordinates": [
          -173.92182889177394,
          -25.57534678862818
        ]
      }
    },
    {
      "type": "Feature",
      "properties": {
        "norad_id": 33953,
        "name": "IRIDIUM 33 DEB",
        "group": "iridium-33-debris",
        "lat": -76.27559651541374,
        "lon": 39.69248787897954,
        "alt_km": 728.8681276252437,
        "timestamp": "2025-12-10T14:53:37.473190+00:00",
        "meta_object_name": "IRIDIUM 33 DEB",
        "meta_object_id": "1997-051BN",
        "meta_epoch": "2025-12-09T23:18:17.054208",
        "meta_mean_motion": 14.5527898,
        "meta_eccentricity": 0.00184582,
        "meta_inclination": 86.384,
        "meta_ra_of_asc_node": 54.9808,
        "meta_arg_of_pericenter": 111.2598,
        "meta_mean_anomaly": 11.2257,
        "meta_ephemeris_type": 0,
        "meta_classification_type": "U",
        "meta_norad_cat_id": 33953,
        "meta_element_set_no": 999,
        "meta_rev_at_epoch": 88263,
        "meta_bstar": 0.0016887129,
        "meta_mean_motion_dot": 7.353e-05,
        "meta_mean_motion_ddot": 0,
        "tle_line1": "1 33953U 97051BN  25343.97103072  .00007353  00000+0  16887-2 0  9990",
        "tle_line2": "2 33953  86.3840  54.9808 0018458 111.2598  11.2257 14.55278980882635"
      },
      "geometry": {
        "type": "Point",
        "coordinates": [
          39.69248787897954,
          -76.27559651541374
        ]
      }
    },
    {
      "type": "Feature",
      "properties": {
        "norad_id": 33960,
        "name": "IRIDIUM 33 DEB",
        "group": "iridium-33-debris",
        "lat": -40.54397364610056,
        "lon": 113.72661684374674,
        "alt_km": 624.9928136896451,
        "timestamp": "2025-12-10T14:53:37.473200+00:00",
        "meta_object_name": "IRIDIUM 33 DEB",
        "meta_object_id": "1997-051BV",
        "meta_epoch": "2025-12-10T08:09:24.835392",
        "meta_mean_motion": 14.84978934,
        "meta_eccentricity": 0.00074716,
        "meta_inclination": 86.2534,
        "meta_ra_of_asc_node": 290.6456,
        "meta_arg_of_pericenter": 66.0574,
        "meta_mean_anomaly": 94.8264,
        "meta_ephemeris_type": 0,
        "meta_classification_type": "U",
        "meta_norad_cat_id": 33960,
        "meta_element_set_no": 999,
        "meta_rev_at_epoch": 88831,
        "meta_bstar": 0.0048552485,
        "meta_mean_motion_dot": 0.00041622,
        "meta_mean_motion_ddot": 0,
        "tle_line1": "1 33960U 97051BV  25344.33987078  .00041622  00000+0  48552-2 0  9996",
        "tle_line2": "2 33960  86.2534 290.6456 0007471  66.0574  94.8264 14.84978934888318"
      },
      "geometry": {
        "type": "Point",
        "coordinates": [
          113.72661684374674,
          -40.54397364610056
        ]
      }
    },
    {
      "type": "Feature",
      "properties": {
        "norad_id": 33966,
        "name": "IRIDIUM 33 DEB",
        "group": "iridium-33-debris",
        "lat": 85.4305933985951,
        "lon": 174.8054422980679,
        "alt_km": 720.6535255187046,
        "timestamp": "2025-12-10T14:53:37.473209+00:00",
        "meta_object_name": "IRIDIUM 33 DEB",
        "meta_object_id": "1997-051CB",
        "meta_epoch": "2025-12-10T04:46:33.396960",
        "meta_mean_motion": 14.49577147,
        "meta_eccentricity": 0.00071131,
        "meta_inclination": 86.3923,
        "meta_ra_of_asc_node": 47.1175,
        "meta_arg_of_pericenter": 196.7181,
        "meta_mean_anomaly": 217.5881,
        "meta_ephemeris_type": 0,
        "meta_classification_type": "U",
        "meta_norad_cat_id": 33966,
        "meta_element_set_no": 999,
        "meta_rev_at_epoch": 88405,
        "meta_bstar": 0.0007778193,
        "meta_mean_motion_dot": 3.004e-05,
        "meta_mean_motion_ddot": 0,
        "tle_line1": "1 33966U 97051CB  25344.19899765  .00003004  00000+0  77782-3 0  9991",
        "tle_line2": "2 33966  86.3923  47.1175 0007113 196.7181 217.5881 14.49577147884056"
      },
      "geometry": {
        "type": "Point",
        "coordinates": [
          174.8054422980679,
          85.4305933985951
        ]
      }
    },
    {
      "type": "Feature",
      "properties": {
        "norad_id": 34071,
        "name": "IRIDIUM 33 DEB",
        "group": "iridium-33-debris",
        "lat": 19.518170313956617,
        "lon": -162.54866377713822,
        "alt_km": 722.9337916088743,
        "timestamp": "2025-12-10T14:53:37.473219+00:00",
        "meta_object_name": "IRIDIUM 33 DEB",
        "meta_object_id": "1997-051CE",
        "meta_epoch": "2025-12-10T04:12:57.801600",
        "meta_mean_motion": 14.49446017,
        "meta_eccentricity": 0.00098473,
        "meta_inclination": 86.3457,
        "meta_ra_of_asc_node": 18.9427,
        "meta_arg_of_pericenter": 114.4386,
        "meta_mean_anomaly": 245.7847,
        "meta_ephemeris_type": 0,
        "meta_classification_type": "U",
        "meta_norad_cat_id": 34071,
        "meta_element_set_no": 999,
        "meta_rev_at_epoch": 88297,
        "meta_bstar": 0.00080362709,
        "meta_mean_motion_dot": 3.096e-05,
        "meta_mean_motion_ddot": 0,
        "tle_line1": "1 34071U 97051CE  25344.17566900  .00003096  00000+0  80363-3 0  9999",
        "tle_line2": "2 34071  86.3457  18.9427 0009847 114.4386 245.7847 14.49446017882977"
      },
      "geometry": {
        "type": "Point",
        "coordinates": [
          -162.54866377713822,
          19.518170313956617
        ]
      }
    },
    {
      "type": "Feature",
      "properties": {
        "norad_id": 34077,
        "name": "IRIDIUM 33 DEB",
        "group": "iridium-33-debris",
        "lat": -65.40622513620941,
        "lon": -119.62206288025527,
        "alt_km": 692.032229414468,
        "timestamp": "2025-12-10T14:53:37.473228+00:00",
        "meta_object_name": "IRIDIUM 33 DEB",
        "meta_object_id": "1997-051CL",
        "meta_epoch": "2025-12-10T05:52:42.153312",
        "meta_mean_motion": 14.64781175,
        "meta_eccentricity": 0.00104641,
        "meta_inclination": 86.3859,
        "meta_ra_of_asc_node": 52.6061,
        "meta_arg_of_pericenter": 47.385,
        "meta_mean_anomaly": 18.7078,
        "meta_ephemeris_type": 0,
        "meta_classification_type": "U",
        "meta_norad_cat_id": 34077,
        "meta_element_set_no": 999,
        "meta_rev_at_epoch": 88296,
        "meta_bstar": 0.0023199606,
        "meta_mean_motion_dot": 0.00012409,
        "meta_mean_motion_ddot": 0,
        "tle_line1": "1 34077U 97051CL  25344.24493233  .00012409  00000+0  23200-2 0  9995",
        "tle_line2": "2 34077  86.3859  52.6061 0010464  47.3850  18.7078 14.64781175882962"
      },
      "geometry": {
        "type": "Point",
        "coordinates": [
          -119.62206288025527,
          -65.40622513620941
        ]
      }
    }
  ]
}